HULIANWANG DIGUI-28     
1 63695U 25086J   26195.21454289  .00000005  00000+0 -21785-4 0  9990
2 63695  86.5020 303.8288 0002061 112.2174 247.9178 13.24410920 58435
HULIANWANG DIGUI-29     
1 63696U 25086K   26195.13147395  .00000003  00000+0 -26725-4 0  9996
2 63696  86.5049 303.9721 0001912 114.1072 246.0263 13.24411283 58429
HULIANWANG DIGUI-30     
1 64283U 25121A   26195.13891175  .00000006  00000+0 -20483-4 0  9999
2 64283  86.4994   4.4623 0001980  89.2132 270.9229 13.24409491 53722
HULIANWANG DIGUI-31     
1 64284U 25121B   26195.13141308  .00000012  00000+0 -56883-5 0  9997
2 64284  86.5014   4.5412 0001975  89.3079 270.8281 13.24414454 53721
HULIANWANG DIGUI-32     
1 64285U 25121C   26195.19925949  .00000033  00000+0  42194-4 0  9996
2 64285  86.4955   4.2737 0001927  93.3208 266.8147 13.24410322 53735
HULIANWANG DIGUI-33     
1 64286U 25121D   26195.11616167  .00000034  00000+0  45922-4 0  9991
2 64286  86.5013   4.5299 0001988  89.7908 270.3453 13.24409925 53727
HULIANWANG DIGUI-34     
1 64287U 25121E   26195.18419343  .00000037  00000+0  51821-4 0  9994
2 64287  86.4990   4.4106 0002201  82.9274 277.2110 13.24410594 53738
HULIANWANG DIGUI-35     
1 64956U 25159A   26195.22214220  .00000041  00000+0  60210-4 0  9997
2 64956  86.4941 273.2972 0004569  67.0305 293.1310 13.24413070 46702
HULIANWANG DIGUI-36     
1 64957U 25159B   26195.21822480  .00000036  00000+0  49534-4 0  9990
2 64957  86.4960 273.3640 0001637 101.6313 258.5005 13.24408508 46700
HULIANWANG DIGUI-37     
1 64958U 25159C   26195.21065517  .00000028  00000+0  30161-4 0  9998
2 64958  86.4902 273.1545 0001791  97.7140 262.4198 13.24409226 46708
HULIANWANG DIGUI-38     
1 64959U 25159D   26195.20313544  .00000031  00000+0  36978-4 0  9990
2 64959  86.4961 273.3569 0001842  98.7649 261.3694 13.24408950 46706
HULIANWANG DIGUI-39     
1 64960U 25159E   26195.19556785  .00000034  00000+0  44462-4 0  9996
2 64960  86.4937 273.2687 0001801 101.4709 258.6628 13.24408814 46700
HULIANWANG DIGUI-40     
1 65043U 25162A   26195.15554707 -.00000114  00000+0  20975-4 0  9994
2 65043  49.9978 169.2083 0000297 307.8241  52.2604 13.29327272 46937
HULIANWANG DIGUI-41     
1 65044U 25162B   26195.14720980 -.00000109  00000+0  32301-4 0  9992
2 65044  49.9988 169.1922 0000262 315.8736  44.2115 13.29326867 46948
HULIANWANG DIGUI-42     
1 65045U 25162C   26195.13879172 -.00000109  00000+0  32949-4 0  9998
2 65045  49.9953 169.0524 0000282 307.9273  52.1574 13.29327513 46944
HULIANWANG DIGUI-43     
1 65046U 25162D   26195.13047396 -.00000111  00000+0  28618-4 0  9995
2 65046  49.9970 169.0579 0000335 305.4811  54.6030 13.29326110 46940
