{"fetched_at":"2026-07-14T17:40:48.257Z","source":"https://celestrak.org/NORAD/elements/gp.php?NAME=HULIANWANG&FORMAT=JSON","constellation":"guowang","records":[{"OBJECT_NAME":"HULIANWANG DIGUI-28","OBJECT_ID":"2025-086J","EPOCH":"2026-07-14T05:08:56.505696","CLASSIFICATION_TYPE":"U","MEAN_MOTION":13.2441092,"ECCENTRICITY":0.0002061,"INCLINATION":86.502,"RA_OF_ASC_NODE":303.8288,"ARG_OF_PERICENTER":112.2174,"MEAN_ANOMALY":247.9178,"EPHEMERIS_TYPE":0,"NORAD_CAT_ID":63695,"ELEMENT_SET_NO":999,"REV_AT_EPOCH":5843,"BSTAR":-0.000021785,"MEAN_MOTION_DOT":5e-8,"MEAN_MOTION_DDOT":0},{"OBJECT_NAME":"HULIANWANG DIGUI-29","OBJECT_ID":"2025-086K","EPOCH":"2026-07-14T03:09:19.349280","CLASSIFICATION_TYPE":"U","MEAN_MOTION":13.24411283,"ECCENTRICITY":0.0001912,"INCLINATION":86.5049,"RA_OF_ASC_NODE":303.9721,"ARG_OF_PERICENTER":114.1072,"MEAN_ANOMALY":246.0263,"EPHEMERIS_TYPE":0,"NORAD_CAT_ID":63696,"ELEMENT_SET_NO":999,"REV_AT_EPOCH":5842,"BSTAR":-0.000026725,"MEAN_MOTION_DOT":3e-8,"MEAN_MOTION_DDOT":0},{"OBJECT_NAME":"HULIANWANG DIGUI-30","OBJECT_ID":"2025-121A","EPOCH":"2026-07-14T03:20:01.975200","CLASSIFICATION_TYPE":"U","MEAN_MOTION":13.24409491,"ECCENTRICITY":0.000198,"INCLINATION":86.4994,"RA_OF_ASC_NODE":4.4623,"ARG_OF_PERICENTER":89.2132,"MEAN_ANOMALY":270.9229,"EPHEMERIS_TYPE":0,"NORAD_CAT_ID":64283,"ELEMENT_SET_NO":999,"REV_AT_EPOCH":5372,"BSTAR":-0.000020483,"MEAN_MOTION_DOT":6e-8,"MEAN_MOTION_DDOT":0},{"OBJECT_NAME":"HULIANWANG DIGUI-31","OBJECT_ID":"2025-121B","EPOCH":"2026-07-14T03:09:14.090112","CLASSIFICATION_TYPE":"U","MEAN_MOTION":13.24414454,"ECCENTRICITY":0.0001975,"INCLINATION":86.5014,"RA_OF_ASC_NODE":4.5412,"ARG_OF_PERICENTER":89.3079,"MEAN_ANOMALY":270.8281,"EPHEMERIS_TYPE":0,"NORAD_CAT_ID":64284,"ELEMENT_SET_NO":999,"REV_AT_EPOCH":5372,"BSTAR":-0.0000056883,"MEAN_MOTION_DOT":1.2e-7,"MEAN_MOTION_DDOT":0},{"OBJECT_NAME":"HULIANWANG DIGUI-32","OBJECT_ID":"2025-121C","EPOCH":"2026-07-14T04:46:56.019936","CLASSIFICATION_TYPE":"U","MEAN_MOTION":13.24410322,"ECCENTRICITY":0.0001927,"INCLINATION":86.4955,"RA_OF_ASC_NODE":4.2737,"ARG_OF_PERICENTER":93.3208,"MEAN_ANOMALY":266.8147,"EPHEMERIS_TYPE":0,"NORAD_CAT_ID":64285,"ELEMENT_SET_NO":999,"REV_AT_EPOCH":5373,"BSTAR":0.000042194,"MEAN_MOTION_DOT":3.3e-7,"MEAN_MOTION_DDOT":0},{"OBJECT_NAME":"HULIANWANG DIGUI-33","OBJECT_ID":"2025-121D","EPOCH":"2026-07-14T02:47:16.368288","CLASSIFICATION_TYPE":"U","MEAN_MOTION":13.24409925,"ECCENTRICITY":0.0001988,"INCLINATION":86.5013,"RA_OF_ASC_NODE":4.5299,"ARG_OF_PERICENTER":89.7908,"MEAN_ANOMALY":270.3453,"EPHEMERIS_TYPE":0,"NORAD_CAT_ID":64286,"ELEMENT_SET_NO":999,"REV_AT_EPOCH":5372,"BSTAR":0.000045922,"MEAN_MOTION_DOT":3.4e-7,"MEAN_MOTION_DDOT":0},{"OBJECT_NAME":"HULIANWANG DIGUI-34","OBJECT_ID":"2025-121E","EPOCH":"2026-07-14T04:25:14.312352","CLASSIFICATION_TYPE":"U","MEAN_MOTION":13.24410594,"ECCENTRICITY":0.0002201,"INCLINATION":86.499,"RA_OF_ASC_NODE":4.4106,"ARG_OF_PERICENTER":82.9274,"MEAN_ANOMALY":277.211,"EPHEMERIS_TYPE":0,"NORAD_CAT_ID":64287,"ELEMENT_SET_NO":999,"REV_AT_EPOCH":5373,"BSTAR":0.000051821,"MEAN_MOTION_DOT":3.7e-7,"MEAN_MOTION_DDOT":0},{"OBJECT_NAME":"HULIANWANG DIGUI-35","OBJECT_ID":"2025-159A","EPOCH":"2026-07-14T05:19:53.086080","CLASSIFICATION_TYPE":"U","MEAN_MOTION":13.2441307,"ECCENTRICITY":0.0004569,"INCLINATION":86.4941,"RA_OF_ASC_NODE":273.2972,"ARG_OF_PERICENTER":67.0305,"MEAN_ANOMALY":293.131,"EPHEMERIS_TYPE":0,"NORAD_CAT_ID":64956,"ELEMENT_SET_NO":999,"REV_AT_EPOCH":4670,"BSTAR":0.00006021,"MEAN_MOTION_DOT":4.1e-7,"MEAN_MOTION_DDOT":0},{"OBJECT_NAME":"HULIANWANG DIGUI-36","OBJECT_ID":"2025-159B","EPOCH":"2026-07-14T05:14:14.622720","CLASSIFICATION_TYPE":"U","MEAN_MOTION":13.24408508,"ECCENTRICITY":0.0001637,"INCLINATION":86.496,"RA_OF_ASC_NODE":273.364,"ARG_OF_PERICENTER":101.6313,"MEAN_ANOMALY":258.5005,"EPHEMERIS_TYPE":0,"NORAD_CAT_ID":64957,"ELEMENT_SET_NO":999,"REV_AT_EPOCH":4670,"BSTAR":0.000049534,"MEAN_MOTION_DOT":3.6e-7,"MEAN_MOTION_DDOT":0},{"OBJECT_NAME":"HULIANWANG DIGUI-37","OBJECT_ID":"2025-159C","EPOCH":"2026-07-14T05:03:20.606688","CLASSIFICATION_TYPE":"U","MEAN_MOTION":13.24409226,"ECCENTRICITY":0.0001791,"INCLINATION":86.4902,"RA_OF_ASC_NODE":273.1545,"ARG_OF_PERICENTER":97.714,"MEAN_ANOMALY":262.4198,"EPHEMERIS_TYPE":0,"NORAD_CAT_ID":64958,"ELEMENT_SET_NO":999,"REV_AT_EPOCH":4670,"BSTAR":0.000030161,"MEAN_MOTION_DOT":2.8e-7,"MEAN_MOTION_DDOT":0},{"OBJECT_NAME":"HULIANWANG DIGUI-38","OBJECT_ID":"2025-159D","EPOCH":"2026-07-14T04:52:30.902016","CLASSIFICATION_TYPE":"U","MEAN_MOTION":13.2440895,"ECCENTRICITY":0.0001842,"INCLINATION":86.4961,"RA_OF_ASC_NODE":273.3569,"ARG_OF_PERICENTER":98.7649,"MEAN_ANOMALY":261.3694,"EPHEMERIS_TYPE":0,"NORAD_CAT_ID":64959,"ELEMENT_SET_NO":999,"REV_AT_EPOCH":4670,"BSTAR":0.000036978,"MEAN_MOTION_DOT":3.1e-7,"MEAN_MOTION_DDOT":0},{"OBJECT_NAME":"HULIANWANG DIGUI-39","OBJECT_ID":"2025-159E","EPOCH":"2026-07-14T04:41:37.062240","CLASSIFICATION_TYPE":"U","MEAN_MOTION":13.24408814,"ECCENTRICITY":0.0001801,"INCLINATION":86.4937,"RA_OF_ASC_NODE":273.2687,"ARG_OF_PERICENTER":101.4709,"MEAN_ANOMALY":258.6628,"EPHEMERIS_TYPE":0,"NORAD_CAT_ID":64960,"ELEMENT_SET_NO":999,"REV_AT_EPOCH":4670,"BSTAR":0.000044462,"MEAN_MOTION_DOT":3.4e-7,"MEAN_MOTION_DDOT":0},{"OBJECT_NAME":"HULIANWANG DIGUI-40","OBJECT_ID":"2025-162A","EPOCH":"2026-07-14T03:43:59.266848","CLASSIFICATION_TYPE":"U","MEAN_MOTION":13.29327272,"ECCENTRICITY":0.0000297,"INCLINATION":49.9978,"RA_OF_ASC_NODE":169.2083,"ARG_OF_PERICENTER":307.8241,"MEAN_ANOMALY":52.2604,"EPHEMERIS_TYPE":0,"NORAD_CAT_ID":65043,"ELEMENT_SET_NO":999,"REV_AT_EPOCH":4693,"BSTAR":0.000020975,"MEAN_MOTION_DOT":-0.00000114,"MEAN_MOTION_DDOT":0},{"OBJECT_NAME":"HULIANWANG DIGUI-41","OBJECT_ID":"2025-162B","EPOCH":"2026-07-14T03:31:58.926720","CLASSIFICATION_TYPE":"U","MEAN_MOTION":13.29326867,"ECCENTRICITY":0.0000262,"INCLINATION":49.9988,"RA_OF_ASC_NODE":169.1922,"ARG_OF_PERICENTER":315.8736,"MEAN_ANOMALY":44.2115,"EPHEMERIS_TYPE":0,"NORAD_CAT_ID":65044,"ELEMENT_SET_NO":999,"REV_AT_EPOCH":4694,"BSTAR":0.000032301,"MEAN_MOTION_DOT":-0.00000109,"MEAN_MOTION_DDOT":0},{"OBJECT_NAME":"HULIANWANG DIGUI-42","OBJECT_ID":"2025-162C","EPOCH":"2026-07-14T03:19:51.604608","CLASSIFICATION_TYPE":"U","MEAN_MOTION":13.29327513,"ECCENTRICITY":0.0000282,"INCLINATION":49.9953,"RA_OF_ASC_NODE":169.0524,"ARG_OF_PERICENTER":307.9273,"MEAN_ANOMALY":52.1574,"EPHEMERIS_TYPE":0,"NORAD_CAT_ID":65045,"ELEMENT_SET_NO":999,"REV_AT_EPOCH":4694,"BSTAR":0.000032949,"MEAN_MOTION_DOT":-0.00000109,"MEAN_MOTION_DDOT":0},{"OBJECT_NAME":"HULIANWANG DIGUI-43","OBJECT_ID":"2025-162D","EPOCH":"2026-07-14T03:07:52.950144","CLASSIFICATION_TYPE":"U","MEAN_MOTION":13.2932611,"ECCENTRICITY":0.0000335,"INCLINATION":49.997,"RA_OF_ASC_NODE":169.0579,"ARG_OF_PERICENTER":305.4811,"MEAN_ANOMALY":54.603,"EPHEMERIS_TYPE":0,"NORAD_CAT_ID":65046,"ELEMENT_SET_NO":999,"REV_AT_EPOCH":4694,"BSTAR":0.000028618,"MEAN_MOTION_DOT":-0.00000111,"MEAN_MOTION_DDOT":0}]}
